1 40115U 14048A   23135.01110736  .00001379  00000+0  16715-3 0  9993
2 40115  97.8250 209.6789 0004953 121.0494 239.1208 14.85184541474356